48115,STARLINK-2452,2021,95.59,260.0,+,53.06,Active,1,LEO,USA,USA,Commercial,Communications,Falcon,1 48115U 21027Z   25158.40630387  .00001296  00000+0  10590-3 0  9998,2 48115  53.0551 317.4198 0001552  84.8689 275.2477 15.06402836231060,15.06402836,0.0001552,LEO
48116,STARLINK-2454,2021,95.59,260.0,+,53.05,Active,1,LEO,USA,USA,Commercial,Communications,Falcon,1 48116U 21027AA  25157.74928999  .00002382  00000+0  17871-3 0  9990,2 48116  53.0550 330.3627 0001562  88.5547 271.5621 15.06404237230422,15.06404237,0.0001562,LEO
48117,STARLINK-2455,2021,95.59,260.0,+,53.05,Active,1,LEO,USA,USA,Commercial,Communications,Falcon,1 48117U 21027AB  25158.78223721  .00002009  00000+0  15372-3 0  9997,2 48117  53.0560 305.7141 0001394 101.8986 258.2160 15.06407061230866,15.06407061,0.0001394,LEO
48119,STARLINK-2459,2021,95.59,260.0,+,53.06,Active,1,LEO,USA,USA,Commercial,Communications,Falcon,1 48119U 21027AD  25158.78960080  .00001137  00000+0  95226-4 0  9993,2 48119  53.0558 305.6830 0001299  88.2415 271.8722 15.06404209230864,15.06404209,0.0001299,LEO
48120,STARLINK-2460,2021,95.59,260.0,+,53.06,Active,1,LEO,USA,USA,Commercial,Communications,Falcon,1 48120U 21027AE  25158.72973239  .00001254  00000+0  10302-3 0  9990,2 48120  53.0556 325.9622 0001339  93.7171 266.3971 15.06409718230576,15.06409718,0.0001339,LEO
48121,STARLINK-2462,2021,95.59,260.0,+,53.06,Active,1,LEO,USA,USA,Commercial,Communications,Falcon,1 48121U 21027AF  25158.43578824  .00001116  00000+0  93784-4 0  9993,2 48121  53.0570 317.2816 0001229  89.0155 271.0974 15.06405283231064,15.06405283,0.0001229,LEO
48123,STARLINK-2464,2021,95.59,260.0,+,53.06,Active,1,LEO,USA,USA,Commercial,Communications,Falcon,1 48123U 21027AH  25158.44407966  .00001118  00000+0  93908-4 0  9994,2 48123  53.0554 307.2419 0001183  92.9481 267.1643 15.06400402231214,15.06400402,0.0001183,LEO
48124,STARLINK-2465,2021,95.59,260.0,+,53.05,Active,1,LEO,USA,USA,Commercial,Communications,Falcon,1 48124U 21027AJ  25158.44316212  .00002991  00000+0  21956-3 0  9991,2 48124  53.0548 317.2469 0001404  91.0244 269.0906 15.06403504231069,15.06403504,0.0001404,LEO
48125,STARLINK-2466,2021,95.59,260.0,+,53.06,Active,1,LEO,USA,USA,Commercial,Communications,Falcon,1 48125U 21027AK  25158.85507955  .00001713  00000+0  13388-3 0  9994,2 48125  53.0551 325.6405 0001371  92.0577 268.0569 15.06399646230592,15.06399646,0.0001371,LEO
48126,STARLINK-2467,2021,95.59,260.0,+,53.06,Active,1,LEO,USA,USA,Commercial,Communications,Falcon,1 48126U 21027AL  25158.67628602  .00002777  00000+0  20519-3 0  9993,2 48126  53.0561 306.2026 0001438  90.6369 269.4785 15.06413397230848,15.06413397,0.0001438,LEO
48127,STARLINK-2468,2021,95.59,260.0,+,53.06,Active,1,LEO,USA,USA,Commercial,Communications,Falcon,1 48127U 21027AM  25158.86611136  .00002214  00000+0  16745-3 0  9991,2 48127  53.0557 325.3490 0001567  88.8757 271.2412 15.06412782230591,15.06412782,0.0001567,LEO
48128,STARLINK-2469,2021,95.59,260.0,+,53.06,Active,1,LEO,USA,USA,Commercial,Communications,Falcon,1 48128U 21027AN  25158.51503952  .00002847  00000+0  20989-3 0  9997,2 48128  53.0544 257.0110 0001254  72.1086 288.0039 15.06408522231917,15.06408522,0.0001254,LEO
48129,STARLINK-2471,2021,95.59,260.0,+,53.05,Active,1,LEO,USA,USA,Commercial,Communications,Falcon,1 48129U 21027AP  25158.46065915  .00006292  00000+0  44091-3 0  9992,2 48129  53.0543 327.1693 0001499  97.0299 263.0861 15.06402417230939,15.06402417,0.0001499,LEO
48130,STARLINK-2472,2021,95.59,260.0,+,53.05,Active,1,LEO,USA,USA,Commercial,Communications,Falcon,1 48130U 21027AQ  25158.50265600  .00000347  00000+0  42177-4 0  9991,2 48130  53.0539 332.5296 0001228  90.9455 269.1674 15.06410172230869,15.06410172,0.0001228,LEO
