[
  {
    "OBJECT_NAME": "STARLINK-2452",
    "OBJECT_ID": "2021-027Z",
    "EPOCH": "2025-06-07T09:45:04.654368",
    "MEAN_MOTION": 15.06402836,
    "ECCENTRICITY": 0.0001552,
    "INCLINATION": 53.0551,
    "RA_OF_ASC_NODE": 317.4198,
    "ARG_OF_PERICENTER": 84.8689,
    "MEAN_ANOMALY": 275.2477,
    "EPHEMERIS_TYPE": 0,
    "CLASSIFICATION_TYPE": "U",
    "NORAD_CAT_ID": 48115,
    "ELEMENT_SET_NO": 999,
    "REV_AT_EPOCH": 23106,
    "BSTAR": 0.0001059,
    "MEAN_MOTION_DOT": 1.296e-05,
    "MEAN_MOTION_DDOT": 0
  },
  {
    "OBJECT_NAME": "STARLINK-2454",
    "OBJECT_ID": "2021-027AA",
    "EPOCH": "2025-06-06T17:58:58.655136",
    "MEAN_MOTION": 15.06404237,
    "ECCENTRICITY": 0.0001562,
    "INCLINATION": 53.055,
    "RA_OF_ASC_NODE": 330.3627,
    "ARG_OF_PERICENTER": 88.5547,
    "MEAN_ANOMALY": 271.5621,
    "EPHEMERIS_TYPE": 0,
    "CLASSIFICATION_TYPE": "U",
    "NORAD_CAT_ID": 48116,
    "ELEMENT_SET_NO": 999,
    "REV_AT_EPOCH": 23042,
    "BSTAR": 0.00017871,
    "MEAN_MOTION_DOT": 2.382e-05,
    "MEAN_MOTION_DDOT": 0
  },
  {
    "OBJECT_NAME": "STARLINK-2455",
    "OBJECT_ID": "2021-027AB",
    "EPOCH": "2025-06-07T18:46:25.294944",
    "MEAN_MOTION": 15.06407061,
    "ECCENTRICITY": 0.0001394,
    "INCLINATION": 53.056,
    "RA_OF_ASC_NODE": 305.7141,
    "ARG_OF_PERICENTER": 101.8986,
    "MEAN_ANOMALY": 258.216,
    "EPHEMERIS_TYPE": 0,
    "CLASSIFICATION_TYPE": "U",
    "NORAD_CAT_ID": 48117,
    "ELEMENT_SET_NO": 999,
    "REV_AT_EPOCH": 23086,
    "BSTAR": 0.00015372,
    "MEAN_MOTION_DOT": 2.009e-05,
    "MEAN_MOTION_DDOT": 0
  },
  {
    "OBJECT_NAME": "STARLINK-2459",
    "OBJECT_ID": "2021-027AD",
    "EPOCH": "2025-06-07T18:57:01.509120",
    "MEAN_MOTION": 15.06404209,
    "ECCENTRICITY": 0.0001299,
    "INCLINATION": 53.0558,
    "RA_OF_ASC_NODE": 305.683,
    "ARG_OF_PERICENTER": 88.2415,
    "MEAN_ANOMALY": 271.8722,
    "EPHEMERIS_TYPE": 0,
    "CLASSIFICATION_TYPE": "U",
    "NORAD_CAT_ID": 48119,
    "ELEMENT_SET_NO": 999,
    "REV_AT_EPOCH": 23086,
    "BSTAR": 9.5226e-05,
    "MEAN_MOTION_DOT": 1.137e-05,
    "MEAN_MOTION_DDOT": 0
  },
  {
    "OBJECT_NAME": "STARLINK-2460",
    "OBJECT_ID": "2021-027AE",
    "EPOCH": "2025-06-07T17:30:48.878496",
    "MEAN_MOTION": 15.06409718,
    "ECCENTRICITY": 0.0001339,
    "INCLINATION": 53.0556,
    "RA_OF_ASC_NODE": 325.9622,
    "ARG_OF_PERICENTER": 93.7171,
    "MEAN_ANOMALY": 266.3971,
    "EPHEMERIS_TYPE": 0,
    "CLASSIFICATION_TYPE": "U",
    "NORAD_CAT_ID": 48120,
    "ELEMENT_SET_NO": 999,
    "REV_AT_EPOCH": 23057,
    "BSTAR": 0.00010302,
    "MEAN_MOTION_DOT": 1.254e-05,
    "MEAN_MOTION_DDOT": 0
  },
  {
    "OBJECT_NAME": "STARLINK-2462",
    "OBJECT_ID": "2021-027AF",
    "EPOCH": "2025-06-07T10:27:32.103936",
    "MEAN_MOTION": 15.06405283,
    "ECCENTRICITY": 0.0001229,
    "INCLINATION": 53.057,
    "RA_OF_ASC_NODE": 317.2816,
    "ARG_OF_PERICENTER": 89.0155,
    "MEAN_ANOMALY": 271.0974,
    "EPHEMERIS_TYPE": 0,
    "CLASSIFICATION_TYPE": "U",
    "NORAD_CAT_ID": 48121,
    "ELEMENT_SET_NO": 999,
    "REV_AT_EPOCH": 23106,
    "BSTAR": 9.3784e-05,
    "MEAN_MOTION_DOT": 1.116e-05,
    "MEAN_MOTION_DDOT": 0
  },
  {
    "OBJECT_NAME": "STARLINK-2464",
    "OBJECT_ID": "2021-027AH",
    "EPOCH": "2025-06-07T10:39:28.482624",
    "MEAN_MOTION": 15.06400402,
    "ECCENTRICITY": 0.0001183,
    "INCLINATION": 53.0554,
    "RA_OF_ASC_NODE": 307.2419,
    "ARG_OF_PERICENTER": 92.9481,
    "MEAN_ANOMALY": 267.1643,
    "EPHEMERIS_TYPE": 0,
    "CLASSIFICATION_TYPE": "U",
    "NORAD_CAT_ID": 48123,
    "ELEMENT_SET_NO": 999,
    "REV_AT_EPOCH": 23121,
    "BSTAR": 9.3908e-05,
    "MEAN_MOTION_DOT": 1.118e-05,
    "MEAN_MOTION_DDOT": 0
  },
  {
    "OBJECT_NAME": "STARLINK-2465",
    "OBJECT_ID": "2021-027AJ",
    "EPOCH": "2025-06-07T10:38:09.207168",
    "MEAN_MOTION": 15.06403504,
    "ECCENTRICITY": 0.0001404,
    "INCLINATION": 53.0548,
    "RA_OF_ASC_NODE": 317.2469,
    "ARG_OF_PERICENTER": 91.0244,
    "MEAN_ANOMALY": 269.0906,
    "EPHEMERIS_TYPE": 0,
    "CLASSIFICATION_TYPE": "U",
    "NORAD_CAT_ID": 48124,
    "ELEMENT_SET_NO": 999,
    "REV_AT_EPOCH": 23106,
    "BSTAR": 0.00021956,
    "MEAN_MOTION_DOT": 2.991e-05,
    "MEAN_MOTION_DDOT": 0
  },
  {
    "OBJECT_NAME": "STARLINK-2466",
    "OBJECT_ID": "2021-027AK",
    "EPOCH": "2025-06-07T20:31:18.873120",
    "MEAN_MOTION": 15.06399646,
    "ECCENTRICITY": 0.0001371,
    "INCLINATION": 53.0551,
    "RA_OF_ASC_NODE": 325.6405,
    "ARG_OF_PERICENTER": 92.0577,
    "MEAN_ANOMALY": 268.0569,
    "EPHEMERIS_TYPE": 0,
    "CLASSIFICATION_TYPE": "U",
    "NORAD_CAT_ID": 48125,
    "ELEMENT_SET_NO": 999,
    "REV_AT_EPOCH": 23059,
    "BSTAR": 0.00013388,
    "MEAN_MOTION_DOT": 1.713e-05,
    "MEAN_MOTION_DDOT": 0
  },
  {
    "OBJECT_NAME": "STARLINK-2467",
    "OBJECT_ID": "2021-027AL",
    "EPOCH": "2025-06-07T16:13:51.112128",
    "MEAN_MOTION": 15.06413397,
    "ECCENTRICITY": 0.0001438,
    "INCLINATION": 53.0561,
    "RA_OF_ASC_NODE": 306.2026,
    "ARG_OF_PERICENTER": 90.6369,
    "MEAN_ANOMALY": 269.4785,
    "EPHEMERIS_TYPE": 0,
    "CLASSIFICATION_TYPE": "U",
    "NORAD_CAT_ID": 48126,
    "ELEMENT_SET_NO": 999,
    "REV_AT_EPOCH": 23084,
    "BSTAR": 0.00020519,
    "MEAN_MOTION_DOT": 2.777e-05,
    "MEAN_MOTION_DDOT": 0
  },
  {
    "OBJECT_NAME": "STARLINK-2468",
    "OBJECT_ID": "2021-027AM",
    "EPOCH": "2025-06-07T20:47:12.021504",
    "MEAN_MOTION": 15.06412782,
    "ECCENTRICITY": 0.0001567,
    "INCLINATION": 53.0557,
    "RA_OF_ASC_NODE": 325.349,
    "ARG_OF_PERICENTER": 88.8757,
    "MEAN_ANOMALY": 271.2412,
    "EPHEMERIS_TYPE": 0,
    "CLASSIFICATION_TYPE": "U",
    "NORAD_CAT_ID": 48127,
    "ELEMENT_SET_NO": 999,
    "REV_AT_EPOCH": 23059,
    "BSTAR": 0.00016745,
    "MEAN_MOTION_DOT": 2.214e-05,
    "MEAN_MOTION_DDOT": 0
  },
  {
    "OBJECT_NAME": "STARLINK-2469",
    "OBJECT_ID": "2021-027AN",
    "EPOCH": "2025-06-07T12:21:39.414528",
    "MEAN_MOTION": 15.06408522,
    "ECCENTRICITY": 0.0001254,
    "INCLINATION": 53.0544,
    "RA_OF_ASC_NODE": 257.011,
    "ARG_OF_PERICENTER": 72.1086,
    "MEAN_ANOMALY": 288.0039,
    "EPHEMERIS_TYPE": 0,
    "CLASSIFICATION_TYPE": "U",
    "NORAD_CAT_ID": 48128,
    "ELEMENT_SET_NO": 999,
    "REV_AT_EPOCH": 23191,
    "BSTAR": 0.00020989,
    "MEAN_MOTION_DOT": 2.847e-05,
    "MEAN_MOTION_DDOT": 0
  },
  {
    "OBJECT_NAME": "STARLINK-2471",
    "OBJECT_ID": "2021-027AP",
    "EPOCH": "2025-06-07T11:03:20.950560",
    "MEAN_MOTION": 15.06402417,
    "ECCENTRICITY": 0.0001499,
    "INCLINATION": 53.0543,
    "RA_OF_ASC_NODE": 327.1693,
    "ARG_OF_PERICENTER": 97.0299,
    "MEAN_ANOMALY": 263.0861,
    "EPHEMERIS_TYPE": 0,
    "CLASSIFICATION_TYPE": "U",
    "NORAD_CAT_ID": 48129,
    "ELEMENT_SET_NO": 999,
    "REV_AT_EPOCH": 23093,
    "BSTAR": 0.00044091,
    "MEAN_MOTION_DOT": 6.292e-05,
    "MEAN_MOTION_DDOT": 0
  },
  {
    "OBJECT_NAME": "STARLINK-2472",
    "OBJECT_ID": "2021-027AQ",
    "EPOCH": "2025-06-07T12:03:49.478400",
    "MEAN_MOTION": 15.06410172,
    "ECCENTRICITY": 0.0001228,
    "INCLINATION": 53.0539,
    "RA_OF_ASC_NODE": 332.5296,
    "ARG_OF_PERICENTER": 90.9455,
    "MEAN_ANOMALY": 269.1674,
    "EPHEMERIS_TYPE": 0,
    "CLASSIFICATION_TYPE": "U",
    "NORAD_CAT_ID": 48130,
    "ELEMENT_SET_NO": 999,
    "REV_AT_EPOCH": 23086,
    "BSTAR": 4.2177e-05,
    "MEAN_MOTION_DOT": 3.47e-06,
    "MEAN_MOTION_DDOT": 0
  }
]